ACS3                    
1 59588U 24077B   24219.72530728  .00000064  00000+0  10979-3 0  9995
2 59588  97.4032 276.1612 0019139 319.2572  40.7146 13.67695284 14311
